STARLINK-6356           
1 57363U 23099AM  26158.53065204 -.00000038  00000+0  81390-5 0  9991
2 57363  43.0030  93.9347 0000764 270.4240  89.6524 15.27574705159942
STARLINK-6338           
1 57364U 23099AN  26157.56144699  .00006356  00000+0  24047-3 0  9992
2 57364  43.0034  99.5625 0001667 271.2536  88.8125 15.27559230159784
STARLINK-5007           
1 57365U 23099AP  26158.10255134 -.00007878  00000+0 -27760-3 0  9998
2 57365  43.0024  96.7223 0001759 268.3323  91.7327 15.27517310159870
STARLINK-6174           
1 57366U 23099AQ  26158.09868992 -.00008325  00000+0 -29385-3 0  9992
2 57366  43.0024  96.6988 0003357 264.2035  95.8434 15.27514175159879
STARLINK-6215           
1 57367U 23099AR  26158.45855214  .00000130  00000+0  14265-4 0  9992
2 57367  43.0043  76.1126 0001105 260.3764  99.6963 15.27573914160892
STARLINK-6218           
1 57368U 23099AS  26157.12555459  .00000628  00000+0  32352-4 0  9993
2 57368  43.0017 102.2968 0001407 250.8864 109.1835 15.27580687159729
STARLINK-6168           
1 57369U 23099AT  26157.56595394  .00008255  00000+0  30481-3 0  9998
2 57369  43.0057  99.5914 0002319 267.9907  92.0679 15.28048795159796
STARLINK-5353           
1 57370U 23099AU  26159.09358925  .00000311  00000+0  20842-4 0  9993
2 57370  43.0107  91.2688 0000781 232.1798 127.8984 15.27571021160020
STARLINK-6032           
1 57371U 23099AV  26158.09478115  .00001263  00000+0  55422-4 0  9996
2 57371  43.0057  96.6796 0001601 263.7988  96.2681 15.27585255159875
STARLINK-5975           
1 57372U 23099AW  26159.10514086 -.00000196  00000+0  23995-5 0  9994
2 57372  43.0017  91.3426 0000718 261.1838  98.8932 15.27573839160029
STARLINK-6370           
1 57373U 23099AX  26159.09871345 -.00000740  00000+0 -17362-4 0  9993
2 57373  43.0071  91.2976 0001009 251.3495 108.7247 15.27574662160028
STARLINK-6369           
1 57374U 23099AY  26159.03175286 -.00000051  00000+0  76849-5 0  9999
2 57374  43.0055  73.5508 0002047 269.2668  90.7949 15.27574636160220
STARLINK-6363           
1 57375U 23099AZ  26159.09742992  .00001020  00000+0  46581-4 0  9995
2 57375  43.0039  91.2939 0001402 268.7150  91.3541 15.27573287160026
STARLINK-6367           
1 57376U 23099BA  26158.09399647  .00024508  00000+0  89642-3 0  9990
2 57376  43.0108  93.2674 0004878 275.7510  84.2785 15.27599137159919
STARLINK-6358           
1 57377U 23099BB  26159.09022667  .00124764  00000+0  54298-2 0  9990
2 57377  42.9984  94.6758 0001258 108.9509 251.1476 15.21044491159983
STARLINK-6364           
1 57378U 23099BC  26159.03176933 -.00002193  00000+0 -70157-4 0  9998
2 57378  42.9979  62.2587 0002169 246.4746 113.5877 15.27580382161093
STARLINK-6361           
1 57379U 23099BD  26157.10932696  .00003882  00000+0  15042-3 0  9996
2 57379  43.0052  98.7726 0002657 271.5391  88.5156 15.27602853159764
STARLINK-6366           
1 57380U 23099BE  26159.03562786 -.00002575  00000+0 -84099-4 0  9990
2 57380  42.9985  62.2722 0001533 261.4501  98.6177 15.27565397161088
STARLINK-6371           
1 57381U 23099BF  26159.02790159 -.00000081  00000+0  65786-5 0  9999
2 57381  43.0080  73.5102 0001786 268.3144  91.7503 15.27575950160962
STARLINK-30240          
1 57404U 23102A   26157.57589574  .00000376  00000+0  23168-4 0  9998
2 57404  43.0057 106.6207 0000367 309.0195  51.0624 15.27571418159831
STARLINK-30195          
1 57406U 23102C   26159.16972500  .00065021  00000+0  23789-2 0  9997
2 57406  43.0081 104.7841 0001907 316.5209  43.5492 15.27200605159996
STARLINK-30207          
1 57407U 23102D   26158.49824146 -.00002199  00000+0 -70428-4 0  9998
2 57407  43.0037  86.8765 0000832 275.5244  84.5513 15.27569335160159
STARLINK-30205          
1 57408U 23102E   26159.10160580 -.00000453  00000+0 -69344-5 0  9990
2 57408  43.0024  98.2900 0001106 252.9202 107.1528 15.27573414160063
STARLINK-30222          
1 57409U 23102F   26158.15536141 -.00000193  00000+0  24908-5 0  9992
2 57409  43.0035 103.2345 0000997 275.3189  84.7549 15.27574827159921
STARLINK-30172          
1 57410U 23102G   26159.13116433 -.00000287  00000+0 -92532-6 0  9995
2 57410  43.0049  98.5072 0000819 263.5585  96.5174 15.27572939160067
STARLINK-30214          
1 57411U 23102H   26158.54510785 -.00000440  00000+0 -64648-5 0  9995
2 57411  43.0042 101.0018 0002324 260.6506  99.4083 15.27571745159934
STARLINK-30182          
1 57412U 23102J   26158.55410318 -.00001123  00000+0 -31291-4 0  9994
2 57412  43.0073 101.0626 0002248 263.8777  96.1819 15.27569808159987
STARLINK-30191          
1 57413U 23102K   26158.96182310  .00019376  00000+0  71345-3 0  9998
2 57413  43.0044  36.8395 0001170 249.4485 110.6241 15.27502622160774
STARLINK-30193          
1 57414U 23102L   26159.16672454  .00167853  00000+0  38169-2 0  9995
2 57414  43.0011  97.0367 0002149 266.1151  89.1810 15.41637719  5918
STARLINK-30208          
1 57415U 23102M   26158.55024666  .00000201  00000+0  16844-4 0  9995
2 57415  43.0033 101.0359 0001250 266.1818  93.8891 15.27577079159931
STARLINK-30224          
1 57416U 23102N   26158.55795763  .00000282  00000+0  19745-4 0  9991
2 57416  43.0044 101.0882 0000235 288.8229  71.2597 15.27578466159983
STARLINK-30043          
1 57417U 23102P   26156.59764529  .00000683  00000+0  34338-4 0  9990
2 57417  43.0055 112.1728 0001396 272.1661  87.9031 15.27580375159689
STARLINK-30221          
1 57418U 23102Q   26158.58910108 -.00000408  00000+0 -53244-5 0  9993
2 57418  43.0057 108.1503 0000470 253.1853 106.8948 15.27572750159903
STARLINK-30188          
1 57432U 23105C   26159.14724203  .00000915  00000+0  42766-4 0  9991
2 57432  43.0020 112.6249 0001560 268.4864  91.5809 15.27577515159346
STARLINK-30105          
1 57433U 23105D   26158.51854664  .00000011  00000+0  99460-5 0  9998
2 57433  43.0015 243.5290 0001540 280.5950  79.4728 15.27575844162061
STARLINK-30102          
1 57434U 23105E   26158.15407425  .00000141  00000+0  14639-4 0  9996
2 57434  43.0038 114.6560 0001445 269.6562  90.4124 15.27578545159213
STARLINK-30158          
1 57438U 23105J   26159.13745434 -.00000315  00000+0 -19217-5 0  9997
2 57438  43.0018 109.1349 0001361 257.5713 102.4986 15.27572362159413
STARLINK-30160          
1 57441U 23105M   26158.60566698 -.00001456  00000+0 -43412-4 0  9995
2 57441  43.0029 118.8370 0000633 246.5113 113.5672 15.27566289159093
STARLINK-30146          
1 57442U 23105N   26158.16050498  .00000771  00000+0  37554-4 0  9990
2 57442  43.0023 114.7015 0001496 272.7039  87.3641 15.27581495159321
STARLINK-30197          
1 57443U 23105P   26157.61684445  .00003195  00000+0  12551-3 0  9997
2 57443  43.0032 117.5013 0001586 271.2405  88.8265 15.27599875159185
STARLINK-30181          
1 57444U 23105Q   26158.60231001  .00000149  00000+0  14941-4 0  9996
2 57444  43.0027 115.4005 0000788 204.8042 155.2772 15.27569471159350
STARLINK-30215          
1 57445U 23105R   26159.14902000 -.00000119  00000+0  51985-5 0  9999
2 57445  43.0018 109.2174 0001025 273.2561  86.8173 15.27572447159250
STARLINK-30162          
1 57446U 23105S   26159.12980102 -.00000372  00000+0 -40091-5 0  9995
2 57446  43.0046  98.0391 0000891 273.9717  86.1033 15.27572557159540
STARLINK-30178          
1 57447U 23105T   26159.14516537  .00000019  00000+0  10208-4 0  9997
2 57447  43.0048 109.1906 0001099 272.4077  87.6649 15.27573532159412
STARLINK-30196          
1 57448U 23105U   26157.61378924  .00001883  00000+0  77942-4 0  9992
2 57448  43.0028 120.8798 0001506 256.8091 103.2593 15.27584475158987
STARLINK-30225          
1 57449U 23105V   26158.59844316 -.00001646  00000+0 -50306-4 0  9998
2 57449  43.0047 115.3682 0002442 262.9139  97.1435 15.27571894159350
STARLINK-30217          
1 57450U 23105W   26158.54390743  .00001126  00000+0  50452-4 0  9998
2 57450  43.0003 101.4254 0000688 288.5751  71.5025 15.27565104159458
STARLINK-30216          
1 57451U 23105X   26159.16300933  .00000152  00000+0  15027-4 0  9997
2 57451  43.0070 108.4801 0000690 275.1926  84.8847 15.27574614159261
STARLINK-30165          
1 57457U 23107A   26158.78433054  .00000333  00000+0  21645-4 0  9997
2 57457  42.9909 187.4948 0002227 265.4377  94.6220 15.27578321158919
STARLINK-30140          
1 57458U 23107B   26158.36848375 -.00014666  00000+0 -52629-3 0  9999
2 57458  42.9997 192.9414 0000361 132.2126 227.8756 15.27468411158828
STARLINK-30077          
1 57460U 23107D   26159.06886102  .00000304  00000+0  20595-4 0  9990
2 57460  43.0037 185.3361 0001489 274.2462  85.8220 15.27577364158979
STARLINK-30229          
1 57461U 23107E   26158.81418608  .00000068  00000+0  11989-4 0  9999
2 57461  43.0014 194.5354 0001236 269.2553  90.8157 15.27577934158848
STARLINK-30088          
1 57462U 23107F   26158.78949051 -.00000392  00000+0 -47168-5 0  9998
2 57462  43.0037 187.5318 0001413 280.0830  79.9862 15.27569896158920
STARLINK-30091          
1 57463U 23107G   26159.16672454  .01605235  00000+0  81694-2 0  9997
2 57463  42.9993 179.6789 0001744 268.6721 210.8876 15.77960294  5791
STARLINK-30116          
1 57465U 23107J   26158.77919595  .00001321  00000+0  57523-4 0  9996
2 57465  43.0011 187.4544 0001417 278.5428  81.5264 15.27574949158924
STARLINK-30092          
1 57467U 23107L   26158.78307845 -.00001934  00000+0 -60835-4 0  9990
2 57467  43.0048 187.4760 0000296  47.1119 312.9758 15.27558605158927
STARLINK-30039          
1 57468U 23107M   26158.78690573 -.00000752  00000+0 -17813-4 0  9999
2 57468  43.0046 187.5101 0001574 273.4124  86.6547 15.27572894158923
STARLINK-30171          
1 57469U 23107N   26158.37222823  .00003880  00000+0  15036-3 0  9991
2 57469  43.0011 192.9657 0001714 259.3325 100.7334 15.27594610158825
STARLINK-30186          
1 57470U 23107P   26159.16672454  .00087218  00000+0  26054-2 0  9998
2 57470  42.9994 193.0236 0001581 265.1147  30.7702 15.33612934  5839
